NOAA 15                 
1 25338U 98030A   25151.83635708  .00000224  00000+0  10950-3 0  9990
2 25338  98.5352 177.1781 0010793  31.5869 328.5958 14.26974256407152
NOAA 18                 
1 28654U 05018A   25151.84531424  .00000214  00000+0  13690-3 0  9992
2 28654  98.8423 231.4197 0014876 150.7281 209.4728 14.13606221 32517
NOAA 19                 
1 33591U 09005A   25151.85035898  .00000196  00000+0  12867-3 0  9997
2 33591  98.9976 216.5058 0014192  32.8854 327.3198 14.13369702840871
SUOMI NPP               
1 37849U 11061A   25151.80153335  .00000101  00000+0  68927-4 0  9999
2 37849  98.7576  91.1658 0001569  24.6850 335.4401 14.19535998704321
NOAA 20 (JPSS-1)        
1 43013U 17073A   25151.81706277  .00000068  00000+0  52950-4 0  9999
2 43013  98.7414  90.5062 0000956  24.1774 335.9447 14.19540796390365
NOAA 21 (JPSS-2)        
1 54234U 22150A   25151.85340683  .00000098  00000+0  67077-4 0  9996
2 54234  98.7269  90.8530 0001544 155.8608 204.2640 14.19535546132448
