[
  {
    "OBJECT_NAME": "NOAA 15",
    "OBJECT_ID": "1998-030A",
    "EPOCH": "2025-05-31T20:04:21.251712",
    "MEAN_MOTION": 14.26974256,
    "ECCENTRICITY": 0.0010793,
    "INCLINATION": 98.5352,
    "RA_OF_ASC_NODE": 177.1781,
    "ARG_OF_PERICENTER": 31.5869,
    "MEAN_ANOMALY": 328.5958,
    "EPHEMERIS_TYPE": 0,
    "CLASSIFICATION_TYPE": "U",
    "NORAD_CAT_ID": 25338,
    "ELEMENT_SET_NO": 999,
    "REV_AT_EPOCH": 40715,
    "BSTAR": 0.0001095,
    "MEAN_MOTION_DOT": 2.24e-06,
    "MEAN_MOTION_DDOT": 0
  },
  {
    "OBJECT_NAME": "NOAA 18",
    "OBJECT_ID": "2005-018A",
    "EPOCH": "2025-05-31T20:17:15.150336",
    "MEAN_MOTION": 14.13606221,
    "ECCENTRICITY": 0.0014876,
    "INCLINATION": 98.8423,
    "RA_OF_ASC_NODE": 231.4197,
    "ARG_OF_PERICENTER": 150.7281,
    "MEAN_ANOMALY": 209.4728,
    "EPHEMERIS_TYPE": 0,
    "CLASSIFICATION_TYPE": "U",
    "NORAD_CAT_ID": 28654,
    "ELEMENT_SET_NO": 999,
    "REV_AT_EPOCH": 3251,
    "BSTAR": 0.0001369,
    "MEAN_MOTION_DOT": 2.14e-06,
    "MEAN_MOTION_DDOT": 0
  },
  {
    "OBJECT_NAME": "NOAA 19",
    "OBJECT_ID": "2009-005A",
    "EPOCH": "2025-05-31T20:24:31.015872",
    "MEAN_MOTION": 14.13369702,
    "ECCENTRICITY": 0.0014192,
    "INCLINATION": 98.9976,
    "RA_OF_ASC_NODE": 216.5058,
    "ARG_OF_PERICENTER": 32.8854,
    "MEAN_ANOMALY": 327.3198,
    "EPHEMERIS_TYPE": 0,
    "CLASSIFICATION_TYPE": "U",
    "NORAD_CAT_ID": 33591,
    "ELEMENT_SET_NO": 999,
    "REV_AT_EPOCH": 84087,
    "BSTAR": 0.00012867,
    "MEAN_MOTION_DOT": 1.96e-06,
    "MEAN_MOTION_DDOT": 0
  },
  {
    "OBJECT_NAME": "SUOMI NPP",
    "OBJECT_ID": "2011-061A",
    "EPOCH": "2025-05-31T19:14:12.481440",
    "MEAN_MOTION": 14.19535998,
    "ECCENTRICITY": 0.0001569,
    "INCLINATION": 98.7576,
    "RA_OF_ASC_NODE": 91.1658,
    "ARG_OF_PERICENTER": 24.685,
    "MEAN_ANOMALY": 335.4401,
    "EPHEMERIS_TYPE": 0,
    "CLASSIFICATION_TYPE": "U",
    "NORAD_CAT_ID": 37849,
    "ELEMENT_SET_NO": 999,
    "REV_AT_EPOCH": 70432,
    "BSTAR": 6.8927e-05,
    "MEAN_MOTION_DOT": 1.01e-06,
    "MEAN_MOTION_DDOT": 0
  },
  {
    "OBJECT_NAME": "NOAA 20 (JPSS-1)",
    "OBJECT_ID": "2017-073A",
    "EPOCH": "2025-05-31T19:36:34.223328",
    "MEAN_MOTION": 14.19540796,
    "ECCENTRICITY": 9.56e-05,
    "INCLINATION": 98.7414,
    "RA_OF_ASC_NODE": 90.5062,
    "ARG_OF_PERICENTER": 24.1774,
    "MEAN_ANOMALY": 335.9447,
    "EPHEMERIS_TYPE": 0,
    "CLASSIFICATION_TYPE": "U",
    "NORAD_CAT_ID": 43013,
    "ELEMENT_SET_NO": 999,
    "REV_AT_EPOCH": 39036,
    "BSTAR": 5.295e-05,
    "MEAN_MOTION_DOT": 6.8e-07,
    "MEAN_MOTION_DDOT": 0
  },
  {
    "OBJECT_NAME": "NOAA 21 (JPSS-2)",
    "OBJECT_ID": "2022-150A",
    "EPOCH": "2025-05-31T20:28:54.350112",
    "MEAN_MOTION": 14.19535546,
    "ECCENTRICITY": 0.0001544,
    "INCLINATION": 98.7269,
    "RA_OF_ASC_NODE": 90.853,
    "ARG_OF_PERICENTER": 155.8608,
    "MEAN_ANOMALY": 204.264,
    "EPHEMERIS_TYPE": 0,
    "CLASSIFICATION_TYPE": "U",
    "NORAD_CAT_ID": 54234,
    "ELEMENT_SET_NO": 999,
    "REV_AT_EPOCH": 13244,
    "BSTAR": 6.7077e-05,
    "MEAN_MOTION_DOT": 9.8e-07,
    "MEAN_MOTION_DDOT": 0
  }
]